{
  "norad_id": 59020,
  "name": "TJS-11",
  "history": [
    {
      "epoch": "2026-03-28T17:04:34.077792Z",
      "apogee_km": 35810.59518130569,
      "perigee_km": 35762.805554632825,
      "latitude_deg": -3.5861657947345305,
      "longitude_deg": 120.28601822402969,
      "height_km": 35810.70540067597,
      "semi_major_axis_km": 42164.83736796926,
      "eccentricity": 0.0005667,
      "inclination_deg": 4.3071,
      "raan_deg": 326.0927,
      "arg_perigee_deg": 58.4793,
      "mean_anomaly_deg": 178.0209,
      "mean_motion_rev_day": 1.00271409
    }
  ]
}